{
  "norad_id": 40349,
  "name": "O3B FM11",
  "history": [
    {
      "epoch": "2026-03-27T10:00:10.642176Z",
      "apogee_km": 8070.279026275729,
      "perigee_km": 8061.4999469771565,
      "latitude_deg": -0.0002397827780385995,
      "longitude_deg": 25.103776374912474,
      "height_km": 8060.005211862397,
      "semi_major_axis_km": 14444.026486626442,
      "eccentricity": 0.0003039,
      "inclination_deg": 0.0578,
      "raan_deg": 0.2533,
      "arg_perigee_deg": 353.3632,
      "mean_anomaly_deg": 6.3752,
      "mean_motion_rev_day": 5.00115538
    }
  ]
}